0 RADUGA 1-7
1 28194U 04010A   13278.77544783 -.00000349  00000-0  10000-3 0  7613
2 28194 007.4047 060.8667 0004375 070.5882 289.5484 01.00297628 34901
0 RADUGA 1-7
1 28194U 04010A   13281.76630986 -.00000354  00000-0  10000-3 0  7624
2 28194 007.4106 060.8285 0004357 071.7294 288.3683 01.00296088 34933
0 RADUGA 1-7
1 28194U 04010A   13282.76330552  .00000000  00000-0  10000-3 0  7640
2 28194 007.4120 060.8060 0004628 084.2688 275.8364 01.00290619 34949
0 RADUGA 1-7
1 28194U 04010A   13283.76031481 -.00000359  00000-0  10000-3 0  7637
2 28194 007.4147 060.8022 0004262 073.9468 286.1476 01.00295036 34959
0 RADUGA 1-7
1 28194U 04010A   13286.75138809 -.00000363  00000-0  10000-3 0  7647
2 28194 007.4208 060.7634 0004299 073.1957 286.9062 01.00293466 34987
0 RADUGA 1-7
1 28194U 04010A   13289.74242297 -.00000362  00000-0  10000-3 0  7656
2 28194 007.4267 060.7253 0004317 072.3922 287.6864 01.00291910 35018
0 RADUGA 1-7
1 28194U 04010A   13289.74246079  .00000000  00000-0  10000-3 0  7667
2 28194 007.4265 060.7186 0005353 087.9269 272.1733 01.00288063 35017
0 RADUGA 1-7
1 28194U 04010A   13292.73343629 -.00000357  00000-0  10000-3 0  7665
2 28194 007.4327 060.6874 0004328 072.4150 287.6180 01.00290397 35041
